[{"OBJECT_NAME":"XINGYUN-2 02","OBJECT_ID":"2020-028B","EPOCH":"2026-03-10T00:08:18.521088","MEAN_MOTION":15.11086378,"ECCENTRICITY":0.0009258,"INCLINATION":97.5114,"RA_OF_ASC_NODE":76.7595,"ARG_OF_PERICENTER":249.9829,"MEAN_ANOMALY":110.0404,"EPHEMERIS_TYPE":0,"CLASSIFICATION_TYPE":"U","NORAD_CAT_ID":45603,"ELEMENT_SET_NO":999,"REV_AT_EPOCH":31985,"BSTAR":0.00013296102,"MEAN_MOTION_DOT":2.163e-5,"MEAN_MOTION_DDOT":0},{"OBJECT_NAME":"STARLINK-4267","OBJECT_ID":"2022-062AL","EPOCH":"2026-03-09T06:32:35.119680","MEAN_MOTION":15.0884444,"ECCENTRICITY":0.00013438,"INCLINATION":53.2172,"RA_OF_ASC_NODE":25.9927,"ARG_OF_PERICENTER":85.6232,"MEAN_ANOMALY":274.4914,"EPHEMERIS_TYPE":0,"CLASSIFICATION_TYPE":"U","NORAD_CAT_ID":52864,"ELEMENT_SET_NO":999,"REV_AT_EPOCH":20586,"BSTAR":-1.2812798e-5,"MEAN_MOTION_DOT":-4.92e-6,"MEAN_MOTION_DDOT":0}]
